GLOBALSTAR M063         
1 26081U 00008A   25280.98043509 -.00000042  00000+0  59414-3 0  9992
2 26081  51.9937 174.5140 0004369 161.1217 211.9850 11.86175531170963
GLOBALSTAR M062         
1 26082U 00008B   25280.88742561 -.00000026  00000+0  51894-3 0  9992
2 26082  51.9823 124.3627 0007196   0.4420  13.4160 12.43474055510642
GLOBALSTAR M060         
1 26083U 00008C   25280.86943699 -.00000125  00000+0 -33707-3 0  9990
2 26083  52.0004 100.3637 0003190  13.0702 133.7029 12.17667585166093
GLOBALSTAR M064         
1 26084U 00008D   25280.92083397 -.00000093  00000+0 -13258-3 0  9991
2 26084  52.0024 272.1713 0001337 284.4622  75.6062 11.88537270180502
GLOBALSTAR M065         
1 31571U 07020A   25280.92136207 -.00000121  00000+0 -96636-4 0  9992
2 31571  51.9887 243.1382 0009690 196.2966 197.1610 12.62009627847642
GLOBALSTAR M069         
1 31573U 07020C   25280.90135696 -.00000082  00000+0  96276-4 0  9998
2 31573  52.0020 246.1898 0002052 359.7001  17.6182 12.23462024847923
GLOBALSTAR M072         
1 31574U 07020D   25280.31235541 -.00000100  00000+0 -22574-3 0  9995
2 31574  51.9943  53.4622 0001512 152.8466 219.9336 11.91652072844830
GLOBALSTAR M071         
1 31576U 07020F   25280.47422851 -.00000080  00000+0  10896-3 0  9996
2 31576  52.0054 276.1847 0000908 350.9345 176.1285 12.18259653508624
